[{"OBJECT_NAME":"HXMT (HUIYAN)","OBJECT_ID":"2017-034A","EPOCH":"2026-03-18T03:16:56.693856","MEAN_MOTION":15.1758099,"ECCENTRICITY":0.0033126,"INCLINATION":43.0155,"RA_OF_ASC_NODE":329.7085,"ARG_OF_PERICENTER":287.3391,"MEAN_ANOMALY":72.3835,"EPHEMERIS_TYPE":0,"CLASSIFICATION_TYPE":"U","NORAD_CAT_ID":42758,"ELEMENT_SET_NO":999,"REV_AT_EPOCH":48382,"BSTAR":0.00021636238,"MEAN_MOTION_DOT":4.246e-5,"MEAN_MOTION_DDOT":0},{"OBJECT_NAME":"SAOCOM 1A","OBJECT_ID":"2018-076A","EPOCH":"2026-03-18T06:24:15.287904","MEAN_MOTION":14.82148516,"ECCENTRICITY":0.00014406,"INCLINATION":97.8893,"RA_OF_ASC_NODE":265.3181,"ARG_OF_PERICENTER":88.3154,"MEAN_ANOMALY":271.8224,"EPHEMERIS_TYPE":0,"CLASSIFICATION_TYPE":"U","NORAD_CAT_ID":43641,"ELEMENT_SET_NO":999,"REV_AT_EPOCH":40263,"BSTAR":2.7683469e-5,"MEAN_MOTION_DOT":1.68e-6,"MEAN_MOTION_DDOT":0},{"OBJECT_NAME":"H-2A R/B","OBJECT_ID":"2018-084L","EPOCH":"2026-03-18T02:33:05.453568","MEAN_MOTION":15.41704637,"ECCENTRICITY":0.00247426,"INCLINATION":98.8721,"RA_OF_ASC_NODE":296.2957,"ARG_OF_PERICENTER":356.4623,"MEAN_ANOMALY":3.644,"EPHEMERIS_TYPE":0,"CLASSIFICATION_TYPE":"U","NORAD_CAT_ID":43682,"ELEMENT_SET_NO":999,"REV_AT_EPOCH":40707,"BSTAR":0.0003479529,"MEAN_MOTION_DOT":0.00014743,"MEAN_MOTION_DDOT":0},{"OBJECT_NAME":"SAOCOM 1B","OBJECT_ID":"2020-059A","EPOCH":"2026-03-14T01:04:39.385920","MEAN_MOTION":14.82151938,"ECCENTRICITY":0.00013837,"INCLINATION":97.8899,"RA_OF_ASC_NODE":260.2532,"ARG_OF_PERICENTER":84.3427,"MEAN_ANOMALY":275.7944,"EPHEMERIS_TYPE":0,"CLASSIFICATION_TYPE":"U","NORAD_CAT_ID":46265,"ELEMENT_SET_NO":999,"REV_AT_EPOCH":29939,"BSTAR":2.6755151e-5,"MEAN_MOTION_DOT":1.61e-6,"MEAN_MOTION_DDOT":0},{"OBJECT_NAME":"CSS (TIANHE)","OBJECT_ID":"2021-035A","EPOCH":"2026-03-18T03:52:08.500800","MEAN_MOTION":15.611222,"ECCENTRICITY":0.00059985,"INCLINATION":41.4669,"RA_OF_ASC_NODE":156.5982,"ARG_OF_PERICENTER":324.6627,"MEAN_ANOMALY":35.3814,"EPHEMERIS_TYPE":0,"CLASSIFICATION_TYPE":"U","NORAD_CAT_ID":48274,"ELEMENT_SET_NO":999,"REV_AT_EPOCH":27893,"BSTAR":0.00025475668,"MEAN_MOTION_DOT":0.00021858,"MEAN_MOTION_DDOT":0},{"OBJECT_NAME":"COSMOS 2550","OBJECT_ID":"2021-056A","EPOCH":"2026-03-17T03:31:02.671680","MEAN_MOTION":15.338788,"ECCENTRICITY":0.00082971,"INCLINATION":67.1448,"RA_OF_ASC_NODE":18.3252,"ARG_OF_PERICENTER":268.888,"MEAN_ANOMALY":91.1323,"EPHEMERIS_TYPE":0,"CLASSIFICATION_TYPE":"U","NORAD_CAT_ID":48865,"ELEMENT_SET_NO":999,"REV_AT_EPOCH":26460,"BSTAR":-3.79957e-7,"MEAN_MOTION_DOT":-2.04e-6,"MEAN_MOTION_DDOT":0},{"OBJECT_NAME":"CZ-2C R/B","OBJECT_ID":"2022-058K","EPOCH":"2026-03-18T06:06:06.367968","MEAN_MOTION":15.5484394,"ECCENTRICITY":0.00419064,"INCLINATION":50.1878,"RA_OF_ASC_NODE":274.2128,"ARG_OF_PERICENTER":237.3535,"MEAN_ANOMALY":122.339,"EPHEMERIS_TYPE":0,"CLASSIFICATION_TYPE":"U","NORAD_CAT_ID":52794,"ELEMENT_SET_NO":999,"REV_AT_EPOCH":21146,"BSTAR":0.0003809548,"MEAN_MOTION_DOT":0.00026527,"MEAN_MOTION_DDOT":0},{"OBJECT_NAME":"CZ-2C R/B","OBJECT_ID":"2022-132E","EPOCH":"2026-03-18T06:35:59.859168","MEAN_MOTION":15.62634555,"ECCENTRICITY":0.00197426,"INCLINATION":97.2952,"RA_OF_ASC_NODE":80.8573,"ARG_OF_PERICENTER":64.2408,"MEAN_ANOMALY":296.0885,"EPHEMERIS_TYPE":0,"CLASSIFICATION_TYPE":"U","NORAD_CAT_ID":54039,"ELEMENT_SET_NO":999,"REV_AT_EPOCH":19171,"BSTAR":0.00037926375,"MEAN_MOTION_DOT":0.00034194,"MEAN_MOTION_DDOT":0},{"OBJECT_NAME":"GSLV R/B","OBJECT_ID":"2022-138AN","EPOCH":"2026-03-18T06:40:32.261952","MEAN_MOTION":14.96833849,"ECCENTRICITY":0.00238527,"INCLINATION":87.3876,"RA_OF_ASC_NODE":163.4879,"ARG_OF_PERICENTER":118.0656,"MEAN_ANOMALY":242.2992,"EPHEMERIS_TYPE":0,"CLASSIFICATION_TYPE":"U","NORAD_CAT_ID":54149,"ELEMENT_SET_NO":999,"REV_AT_EPOCH":18521,"BSTAR":0.00018616497,"MEAN_MOTION_DOT":2.173e-5,"MEAN_MOTION_DDOT":0},{"OBJECT_NAME":"XRISM","OBJECT_ID":"2023-137A","EPOCH":"2026-03-17T19:53:41.829504","MEAN_MOTION":15.11590805,"ECCENTRICITY":0.0007911,"INCLINATION":31.0008,"RA_OF_ASC_NODE":231.0124,"ARG_OF_PERICENTER":120.9592,"MEAN_ANOMALY":239.1824,"EPHEMERIS_TYPE":0,"CLASSIFICATION_TYPE":"U","NORAD_CAT_ID":57800,"ELEMENT_SET_NO":999,"REV_AT_EPOCH":13902,"BSTAR":0.00022845994,"MEAN_MOTION_DOT":4.074e-5,"MEAN_MOTION_DDOT":0},{"OBJECT_NAME":"ACS3","OBJECT_ID":"2024-077B","EPOCH":"2026-03-18T06:44:55.054464","MEAN_MOTION":13.89979316,"ECCENTRICITY":0.00671285,"INCLINATION":97.2026,"RA_OF_ASC_NODE":16.4625,"ARG_OF_PERICENTER":56.2655,"MEAN_ANOMALY":304.4882,"EPHEMERIS_TYPE":0,"CLASSIFICATION_TYPE":"U","NORAD_CAT_ID":59588,"ELEMENT_SET_NO":999,"REV_AT_EPOCH":9539,"BSTAR":0.011614769,"MEAN_MOTION_DOT":0.00014572,"MEAN_MOTION_DDOT":0},{"OBJECT_NAME":"SZ-21 MODULE","OBJECT_ID":"2025-246C","EPOCH":"2026-03-17T14:02:08.684736","MEAN_MOTION":15.6917503,"ECCENTRICITY":5.925e-5,"INCLINATION":41.4741,"RA_OF_ASC_NODE":154.7368,"ARG_OF_PERICENTER":302.6268,"MEAN_ANOMALY":57.4517,"EPHEMERIS_TYPE":0,"CLASSIFICATION_TYPE":"U","NORAD_CAT_ID":66515,"ELEMENT_SET_NO":999,"REV_AT_EPOCH":1931,"BSTAR":0.00024560925,"MEAN_MOTION_DOT":0.00029162,"MEAN_MOTION_DDOT":0}]
